[{"OBJECT_NAME":"ONEWEB-0657","OBJECT_ID":"2023-029Y","EPOCH":"2025-10-31T15:17:14.645184","MEAN_MOTION":13.19722324,"ECCENTRICITY":0.0002179,"INCLINATION":87.9231,"RA_OF_ASC_NODE":350.4614,"ARG_OF_PERICENTER":76.438,"MEAN_ANOMALY":283.6996,"EPHEMERIS_TYPE":0,"CLASSIFICATION_TYPE":"U","NORAD_CAT_ID":55818,"ELEMENT_SET_NO":999,"REV_AT_EPOCH":12876,"BSTAR":-9.4854e-5,"MEAN_MOTION_DOT":-2.5e-7,"MEAN_MOTION_DDOT":0},{"OBJECT_NAME":"ONEWEB-0658","OBJECT_ID":"2023-029Z","EPOCH":"2025-10-31T15:10:26.184864","MEAN_MOTION":13.19725636,"ECCENTRICITY":0.0002376,"INCLINATION":87.9248,"RA_OF_ASC_NODE":350.4085,"ARG_OF_PERICENTER":102.1626,"MEAN_ANOMALY":257.9773,"EPHEMERIS_TYPE":0,"CLASSIFICATION_TYPE":"U","NORAD_CAT_ID":55819,"ELEMENT_SET_NO":999,"REV_AT_EPOCH":12877,"BSTAR":5.6514e-5,"MEAN_MOTION_DOT":3.6e-7,"MEAN_MOTION_DDOT":0},{"OBJECT_NAME":"ONEWEB-0660","OBJECT_ID":"2023-029AA","EPOCH":"2025-10-31T13:04:42.932640","MEAN_MOTION":13.14504347,"ECCENTRICITY":0.0001834,"INCLINATION":87.9018,"RA_OF_ASC_NODE":335.24,"ARG_OF_PERICENTER":105.8968,"MEAN_ANOMALY":254.2364,"EPHEMERIS_TYPE":0,"CLASSIFICATION_TYPE":"U","NORAD_CAT_ID":55820,"ELEMENT_SET_NO":999,"REV_AT_EPOCH":12936,"BSTAR":0.00061669,"MEAN_MOTION_DOT":2.41e-6,"MEAN_MOTION_DDOT":0},{"OBJECT_NAME":"ONEWEB-0661","OBJECT_ID":"2023-029AB","EPOCH":"2025-10-31T19:23:47.698080","MEAN_MOTION":13.14500629,"ECCENTRICITY":0.0001773,"INCLINATION":87.9011,"RA_OF_ASC_NODE":335.2573,"ARG_OF_PERICENTER":105.8367,"MEAN_ANOMALY":254.2958,"EPHEMERIS_TYPE":0,"CLASSIFICATION_TYPE":"U","NORAD_CAT_ID":55821,"ELEMENT_SET_NO":999,"REV_AT_EPOCH":12938,"BSTAR":-0.00071857,"MEAN_MOTION_DOT":-2.54e-6,"MEAN_MOTION_DDOT":0},{"OBJECT_NAME":"ONEWEB-0662","OBJECT_ID":"2023-029AC","EPOCH":"2025-10-31T14:45:12.189024","MEAN_MOTION":13.14500856,"ECCENTRICITY":0.0001941,"INCLINATION":87.9013,"RA_OF_ASC_NODE":335.3006,"ARG_OF_PERICENTER":105.6751,"MEAN_ANOMALY":254.4593,"EPHEMERIS_TYPE":0,"CLASSIFICATION_TYPE":"U","NORAD_CAT_ID":55822,"ELEMENT_SET_NO":999,"REV_AT_EPOCH":12940,"BSTAR":0.00057421,"MEAN_MOTION_DOT":2.26e-6,"MEAN_MOTION_DDOT":0},{"OBJECT_NAME":"ONEWEB-0663","OBJECT_ID":"2023-029AD","EPOCH":"2025-10-31T18:30:09.313632","MEAN_MOTION":13.20849879,"ECCENTRICITY":0.0002099,"INCLINATION":87.921,"RA_OF_ASC_NODE":320.0435,"ARG_OF_PERICENTER":104.4224,"MEAN_ANOMALY":255.7142,"EPHEMERIS_TYPE":0,"CLASSIFICATION_TYPE":"U","NORAD_CAT_ID":55823,"ELEMENT_SET_NO":999,"REV_AT_EPOCH":13099,"BSTAR":0.00017857,"MEAN_MOTION_DOT":8.6e-7,"MEAN_MOTION_DDOT":0},{"OBJECT_NAME":"ONEWEB-0664","OBJECT_ID":"2023-029AE","EPOCH":"2025-10-31T13:22:45.770016","MEAN_MOTION":13.20770459,"ECCENTRICITY":0.0001523,"INCLINATION":87.9193,"RA_OF_ASC_NODE":320.0984,"ARG_OF_PERICENTER":100.1046,"MEAN_ANOMALY":260.026,"EPHEMERIS_TYPE":0,"CLASSIFICATION_TYPE":"U","NORAD_CAT_ID":55824,"ELEMENT_SET_NO":999,"REV_AT_EPOCH":13096,"BSTAR":0.00031117,"MEAN_MOTION_DOT":1.39e-6,"MEAN_MOTION_DDOT":0},{"OBJECT_NAME":"ONEWEB-0665","OBJECT_ID":"2023-029AF","EPOCH":"2025-10-31T19:19:13.664064","MEAN_MOTION":13.14501717,"ECCENTRICITY":0.0001998,"INCLINATION":87.9015,"RA_OF_ASC_NODE":335.2343,"ARG_OF_PERICENTER":104.0009,"MEAN_ANOMALY":256.1343,"EPHEMERIS_TYPE":0,"CLASSIFICATION_TYPE":"U","NORAD_CAT_ID":55825,"ELEMENT_SET_NO":999,"REV_AT_EPOCH":12940,"BSTAR":-0.00048359,"MEAN_MOTION_DOT":-1.66e-6,"MEAN_MOTION_DDOT":0},{"OBJECT_NAME":"ONEWEB-0666","OBJECT_ID":"2023-029AG","EPOCH":"2025-10-31T13:13:40.105632","MEAN_MOTION":13.20771597,"ECCENTRICITY":0.0002088,"INCLINATION":87.9188,"RA_OF_ASC_NODE":320.0882,"ARG_OF_PERICENTER":69.5838,"MEAN_ANOMALY":290.552,"EPHEMERIS_TYPE":0,"CLASSIFICATION_TYPE":"U","NORAD_CAT_ID":55826,"ELEMENT_SET_NO":999,"REV_AT_EPOCH":13097,"BSTAR":0.00039738,"MEAN_MOTION_DOT":1.75e-6,"MEAN_MOTION_DDOT":0},{"OBJECT_NAME":"ONEWEB-0667","OBJECT_ID":"2023-029AH","EPOCH":"2025-10-31T18:31:49.503072","MEAN_MOTION":13.20769631,"ECCENTRICITY":0.0001813,"INCLINATION":87.9198,"RA_OF_ASC_NODE":319.9737,"ARG_OF_PERICENTER":98.2419,"MEAN_ANOMALY":261.892,"EPHEMERIS_TYPE":0,"CLASSIFICATION_TYPE":"U","NORAD_CAT_ID":55827,"ELEMENT_SET_NO":999,"REV_AT_EPOCH":13099,"BSTAR":0.0002726,"MEAN_MOTION_DOT":1.24e-6,"MEAN_MOTION_DDOT":0},{"OBJECT_NAME":"ONEWEB-0669","OBJECT_ID":"2023-029AJ","EPOCH":"2025-10-31T12:57:45.859104","MEAN_MOTION":13.20772389,"ECCENTRICITY":0.0001291,"INCLINATION":87.9191,"RA_OF_ASC_NODE":320.0581,"ARG_OF_PERICENTER":79.2456,"MEAN_ANOMALY":280.8823,"EPHEMERIS_TYPE":0,"CLASSIFICATION_TYPE":"U","NORAD_CAT_ID":55828,"ELEMENT_SET_NO":999,"REV_AT_EPOCH":13096,"BSTAR":9.0499e-5,"MEAN_MOTION_DOT":5.0e-7,"MEAN_MOTION_DDOT":0},{"OBJECT_NAME":"ONEWEB-0670","OBJECT_ID":"2023-029AK","EPOCH":"2025-10-31T15:08:02.359968","MEAN_MOTION":13.14503051,"ECCENTRICITY":0.0001653,"INCLINATION":87.9016,"RA_OF_ASC_NODE":335.2886,"ARG_OF_PERICENTER":105.5241,"MEAN_ANOMALY":254.6072,"EPHEMERIS_TYPE":0,"CLASSIFICATION_TYPE":"U","NORAD_CAT_ID":55829,"ELEMENT_SET_NO":999,"REV_AT_EPOCH":12940,"BSTAR":0.00040479,"MEAN_MOTION_DOT":1.63e-6,"MEAN_MOTION_DDOT":0},{"OBJECT_NAME":"ONEWEB-0671","OBJECT_ID":"2023-029AL","EPOCH":"2025-10-31T15:03:37.010016","MEAN_MOTION":13.19726591,"ECCENTRICITY":0.0001873,"INCLINATION":87.9233,"RA_OF_ASC_NODE":350.4575,"ARG_OF_PERICENTER":103.0218,"MEAN_ANOMALY":257.1124,"EPHEMERIS_TYPE":0,"CLASSIFICATION_TYPE":"U","NORAD_CAT_ID":55830,"ELEMENT_SET_NO":999,"REV_AT_EPOCH":12875,"BSTAR":3.4838e-5,"MEAN_MOTION_DOT":2.7e-7,"MEAN_MOTION_DDOT":0},{"OBJECT_NAME":"ONEWEB-0672","OBJECT_ID":"2023-029AM","EPOCH":"2025-10-31T18:18:13.549248","MEAN_MOTION":13.20771101,"ECCENTRICITY":0.0001824,"INCLINATION":87.9188,"RA_OF_ASC_NODE":319.9946,"ARG_OF_PERICENTER":83.7434,"MEAN_ANOMALY":276.3907,"EPHEMERIS_TYPE":0,"CLASSIFICATION_TYPE":"U","NORAD_CAT_ID":55831,"ELEMENT_SET_NO":999,"REV_AT_EPOCH":13099,"BSTAR":0.00042933,"MEAN_MOTION_DOT":1.88e-6,"MEAN_MOTION_DDOT":0},{"OBJECT_NAME":"ONEWEB-0673","OBJECT_ID":"2023-029AN","EPOCH":"2025-10-31T19:57:01.918944","MEAN_MOTION":13.19725997,"ECCENTRICITY":0.0002109,"INCLINATION":87.9251,"RA_OF_ASC_NODE":350.3906,"ARG_OF_PERICENTER":99.2837,"MEAN_ANOMALY":260.8534,"EPHEMERIS_TYPE":0,"CLASSIFICATION_TYPE":"U","NORAD_CAT_ID":55832,"ELEMENT_SET_NO":999,"REV_AT_EPOCH":12878,"BSTAR":9.9625e-5,"MEAN_MOTION_DOT":5.3e-7,"MEAN_MOTION_DDOT":0},{"OBJECT_NAME":"ONEWEB-0674","OBJECT_ID":"2023-029AP","EPOCH":"2025-10-31T14:22:20.666784","MEAN_MOTION":13.14502161,"ECCENTRICITY":0.0001544,"INCLINATION":87.9006,"RA_OF_ASC_NODE":335.2753,"ARG_OF_PERICENTER":108.3845,"MEAN_ANOMALY":251.7452,"EPHEMERIS_TYPE":0,"CLASSIFICATION_TYPE":"U","NORAD_CAT_ID":55833,"ELEMENT_SET_NO":999,"REV_AT_EPOCH":12938,"BSTAR":-0.00085359,"MEAN_MOTION_DOT":-3.04e-6,"MEAN_MOTION_DDOT":0},{"OBJECT_NAME":"ONEWEB-0675","OBJECT_ID":"2023-029AQ","EPOCH":"2025-10-31T16:41:24.050400","MEAN_MOTION":13.19724872,"ECCENTRICITY":0.0002072,"INCLINATION":87.9233,"RA_OF_ASC_NODE":350.4541,"ARG_OF_PERICENTER":91.0713,"MEAN_ANOMALY":269.0657,"EPHEMERIS_TYPE":0,"CLASSIFICATION_TYPE":"U","NORAD_CAT_ID":55834,"ELEMENT_SET_NO":999,"REV_AT_EPOCH":12878,"BSTAR":0.00022207,"MEAN_MOTION_DOT":1.02e-6,"MEAN_MOTION_DDOT":0}]
