ONEWEB-0657             
1 55818U 23029Y   25304.63697506 -.00000025  00000+0 -94854-4 0  9991
2 55818  87.9231 350.4614 0002179  76.4380 283.6996 13.19722324128760
ONEWEB-0658             
1 55819U 23029Z   25304.63224751  .00000036  00000+0  56514-4 0  9991
2 55819  87.9248 350.4085 0002376 102.1626 257.9773 13.19725636128777
ONEWEB-0660             
1 55820U 23029AA  25304.54494135  .00000241  00000+0  61669-3 0  9992
2 55820  87.9018 335.2400 0001834 105.8968 254.2364 13.14504347129364
ONEWEB-0661             
1 55821U 23029AB  25304.80819095 -.00000254  00000+0 -71857-3 0  9994
2 55821  87.9011 335.2573 0001773 105.8367 254.2958 13.14500629129384
ONEWEB-0662             
1 55822U 23029AC  25304.61472441  .00000226  00000+0  57421-3 0  9992
2 55822  87.9013 335.3006 0001941 105.6751 254.4593 13.14500856129403
ONEWEB-0663             
1 55823U 23029AD  25304.77094113  .00000086  00000+0  17857-3 0  9999
2 55823  87.9210 320.0435 0002099 104.4224 255.7142 13.20849879130995
ONEWEB-0664             
1 55824U 23029AE  25304.55747419  .00000139  00000+0  31117-3 0  9994
2 55824  87.9193 320.0984 0001523 100.1046 260.0260 13.20770459130965
ONEWEB-0665             
1 55825U 23029AF  25304.80501926 -.00000166  00000+0 -48359-3 0  9992
2 55825  87.9015 335.2343 0001998 104.0009 256.1343 13.14501717129401
ONEWEB-0666             
1 55826U 23029AG  25304.55115863  .00000175  00000+0  39738-3 0  9995
2 55826  87.9188 320.0882 0002088  69.5838 290.5520 13.20771597130974
ONEWEB-0667             
1 55827U 23029AH  25304.77210073  .00000124  00000+0  27260-3 0  9990
2 55827  87.9198 319.9737 0001813  98.2419 261.8920 13.20769631130994
ONEWEB-0669             
1 55828U 23029AJ  25304.54011411  .00000050  00000+0  90499-4 0  9994
2 55828  87.9191 320.0581 0001291  79.2456 280.8823 13.20772389130962
ONEWEB-0670             
1 55829U 23029AK  25304.63058287  .00000163  00000+0  40479-3 0  9994
2 55829  87.9016 335.2886 0001653 105.5241 254.6072 13.14503051129405
ONEWEB-0671             
1 55830U 23029AL  25304.62751169  .00000027  00000+0  34838-4 0  9996
2 55830  87.9233 350.4575 0001873 103.0218 257.1124 13.19726591128757
ONEWEB-0672             
1 55831U 23029AM  25304.76265682  .00000188  00000+0  42933-3 0  9994
2 55831  87.9188 319.9946 0001824  83.7434 276.3907 13.20771101130999
ONEWEB-0673             
1 55832U 23029AN  25304.83127221  .00000053  00000+0  99625-4 0  9991
2 55832  87.9251 350.3906 0002109  99.2837 260.8534 13.19725997128780
ONEWEB-0674             
1 55833U 23029AP  25304.59885031 -.00000304  00000+0 -85359-3 0  9994
2 55833  87.9006 335.2753 0001544 108.3845 251.7452 13.14502161129380
ONEWEB-0675             
1 55834U 23029AQ  25304.69541725  .00000102  00000+0  22207-3 0  9992
2 55834  87.9233 350.4541 0002072  91.0713 269.0657 13.19724872128788
